[{"OBJECT_NAME":"STARLINK-32392","OBJECT_ID":"2024-171Q","EPOCH":"2026-03-09T23:17:43.655424","MEAN_MOTION":15.30191064,"ECCENTRICITY":9.905e-5,"INCLINATION":53.1605,"RA_OF_ASC_NODE":320.9881,"ARG_OF_PERICENTER":82.8112,"MEAN_ANOMALY":277.3002,"EPHEMERIS_TYPE":0,"CLASSIFICATION_TYPE":"U","NORAD_CAT_ID":61214,"ELEMENT_SET_NO":999,"REV_AT_EPOCH":8241,"BSTAR":9.8913723e-5,"MEAN_MOTION_DOT":2.571e-5,"MEAN_MOTION_DDOT":0},{"OBJECT_NAME":"SCS-01 D","OBJECT_ID":"2025-100D","EPOCH":"2026-03-09T18:08:45.040704","MEAN_MOTION":15.31902149,"ECCENTRICITY":0.00063457,"INCLINATION":97.373,"RA_OF_ASC_NODE":145.4097,"ARG_OF_PERICENTER":266.2302,"MEAN_ANOMALY":93.8214,"EPHEMERIS_TYPE":0,"CLASSIFICATION_TYPE":"U","NORAD_CAT_ID":63985,"ELEMENT_SET_NO":999,"REV_AT_EPOCH":4562,"BSTAR":0.0010528181,"MEAN_MOTION_DOT":0.00032471,"MEAN_MOTION_DDOT":0}]
